OBJECT_NAME,OBJECT_ID,EPOCH,MEAN_MOTION,ECCENTRICITY,INCLINATION,RA_OF_ASC_NODE,ARG_OF_PERICENTER,MEAN_ANOMALY,EPHEMERIS_TYPE,CLASSIFICATION_TYPE,NORAD_CAT_ID,ELEMENT_SET_NO,REV_AT_EPOCH,BSTAR,MEAN_MOTION_DOT,MEAN_MOTION_DDOT
GALAXY 34 (G-34),2022-128B,2026-07-10T08:07:44.734080,1.00265764,.00014982,0.0117,33.8074,90.3264,157.0600,0,U,54027,999,1414,0,.7E-6,0
ANGOSAT 2,2022-131A,2026-07-10T08:34:35.007168,1.00272137,.0000269,0.0226,120.2099,106.8187,212.9001,0,U,54033,999,1370,0,.146E-5,0
EUTELSAT HOTBIRD 13F,2022-134A,2026-07-10T07:33:38.628288,1.00271124,.00019259,0.0500,289.2177,64.9425,60.4949,0,U,54048,999,1360,0,.98E-6,0
LDPE-2,2022-144A,2026-07-10T08:03:25.414848,1.00542187,.00024014,5.6660,63.4557,109.7684,100.5894,0,U,54219,999,1207,0,.6E-6,0
EUTELSAT HOTBIRD 13G,2022-146A,2026-07-10T07:33:38.628288,1.00270717,.00021101,0.0540,217.3413,327.4302,229.8745,0,U,54225,999,769,0,.98E-6,0
ZHONGXING-19,2022-148A,2026-07-10T05:49:35.355648,1.00270525,.00029504,0.0261,280.5307,216.6335,41.5930,0,U,54230,999,1361,0,-.71E-6,0
GALAXY 31 (G-31),2022-153A,2026-07-10T08:12:09.734976,1.00269816,.00009321,0.0190,42.7700,80.0001,167.5317,0,U,54243,999,736,0,0,0
GALAXY 32 (G-32),2022-153B,2026-07-10T06:19:49.276992,1.00271315,.00015071,0.0095,29.5174,17.2587,245.3708,0,U,54244,999,1337,0,-.163E-5,0
EUTELSAT 10B,2022-157A,2026-07-09T13:41:46.383072,1.00268864,.00019391,0.0611,95.8495,19.2550,27.8360,0,U,54259,999,1325,0,.81E-6,0
GALAXY 35 (G-35),2022-170A,2026-07-10T07:26:17.710944,1.00269617,.00018613,0.0164,28.5392,87.0011,191.1661,0,U,54741,999,1312,0,0,0
GALAXY 36 (G-36),2022-170B,2026-07-10T06:20:19.229280,1.00271533,.00024264,0.0260,117.6924,341.0636,195.5164,0,U,54742,999,1300,0,-.174E-5,0
METEOSAT-12 (MTG-I1),2022-170C,2026-07-10T07:59:38.527584,1.00266807,.00038271,0.7198,18.8197,83.1984,305.9022,0,U,54743,999,1321,0,.2E-7,0
SHIJIAN-23 (SJ-23),2023-002A,2026-07-09T17:31:16.688064,1.00079269,.0003406,3.7721,78.0297,271.2321,334.1379,0,U,55131,999,1273,0,-.331E-5,0
APSTAR-6E,2023-005A,2026-07-10T07:23:58.128288,1.00275375,.0001865,0.0523,236.5935,338.9280,317.7280,0,U,55239,999,1892,0,-.306E-5,0
USA 342,2023-008A,2026-07-07T12:08:44.815200,1.00266819,.0000194,0.0041,358.8692,5.7709,126.9344,0,U,55263,999,1272,0,0,0
LDPE-3A,2023-008B,2026-07-10T05:47:58.012224,0.99151319,.00015252,2.4049,81.3798,77.4958,14.0566,0,U,55264,999,1204,0,-.259E-5,0
ELEKTRO-L 4,2023-016A,2026-07-09T17:46:10.795872,1.00272253,.0001196,0.1044,130.5746,45.7352,183.6918,0,U,55506,999,1256,0,-.46E-6,0
AMAZONAS NEXUS,2023-017A,2026-07-09T16:12:37.153728,1.00269698,.00046145,0.0345,40.6573,43.4687,25.6403,0,U,55508,999,727,0,-.27E-5,0
ZHONGXING-26,2023-023A,2026-07-10T09:04:02.182656,1.00272476,.0003335,0.0646,70.7392,29.2468,89.4047,0,U,55686,999,1246,0,-.343E-5,0
LUCH-5X (OLYMP-K 2),2023-031A,2026-07-09T16:46:38.808192,1.00272964,.0000986,0.0321,92.7131,153.1595,355.3951,0,U,55841,999,1216,0,.45E-6,0
GAOFEN-13 02,2023-036A,2026-07-10T08:31:38.668224,1.00275428,.00037248,1.0259,3.9334,337.8623,222.5682,0,U,55912,999,1232,0,-.208E-5,0
SES-18,2023-038A,2026-07-10T07:27:32.959296,1.00271430,.00006473,0.0504,266.1441,303.9161,86.9708,0,U,55970,999,1233,0,-.9E-6,0
SES-19,2023-038B,2026-07-10T08:02:59.324640,1.00272233,.00016485,0.0260,303.3044,177.0180,153.7867,0,U,55971,999,1232,0,.98E-6,0
INTELSAT 40E (IS-40E),2023-052A,2026-07-10T06:19:49.276992,1.00271727,.00022131,0.0168,71.7954,71.2130,149.1372,0,U,56174,999,1205,0,-.163E-5,0
VIASAT-3 F1,2023-060A,2026-07-10T04:37:42.246912,1.00264206,.00011148,0.0174,15.5031,108.4229,144.6458,0,U,56370,999,1166,0,0,0
ARCTURUS,2023-060B,2026-07-10T02:20:52.129248,1.00596681,.00007136,2.8320,79.6570,135.6927,200.9616,0,U,56371,999,1168,0,-.297E-5,0
GS-1,2023-060C,2026-07-09T19:12:34.992000,1.00268262,.00034958,2.7823,79.5663,281.3864,304.3032,0,U,56372,999,776,0,-.213E-5,0
BEIDOU-3 G4,2023-066A,2026-07-10T07:25:35.471712,1.00274299,.00048559,0.4648,337.4315,187.7070,14.5230,0,U,56564,999,1162,0,-.27E-5,0
ARABSAT-7B (BADR-8),2023-075A,2026-07-10T01:22:38.758656,1.00271042,.00034764,0.0719,28.6471,2.0078,303.9941,0,U,56757,999,1134,0,.156E-5,0
NVS-01 (IRNSS-1J),2023-076A,2026-07-10T07:22:35.758848,1.00267057,.00034569,2.1142,243.3193,7.3744,277.7053,0,U,56759,999,1134,0,-.323E-5,0
NUSANTARA TIGA (SATRIA),2023-086A,2026-07-10T06:49:38.585568,1.00272962,.00027675,0.0339,8.7255,336.1803,191.7243,0,U,57045,999,999,0,-.224E-5,0
