GALAXY 34 (G-34)        
1 54027U 22128B   26191.33871220  .00000070  00000+0  00000+0 0  9993
2 54027   0.0117  33.8074 0001498  90.3264 157.0600  1.00265764 14140
ANGOSAT 2               
1 54033U 22131A   26191.35734962  .00000146  00000+0  00000+0 0  9991
2 54033   0.0226 120.2099 0000269 106.8187 212.9001  1.00272137 13707
EUTELSAT HOTBIRD 13F    
1 54048U 22134A   26191.31503042  .00000098  00000+0  00000+0 0  9995
2 54048   0.0500 289.2177 0001925  64.9425  60.4949  1.00271124 13601
LDPE-2                  
1 54219U 22144A   26191.33571082  .00000060  00000+0  00000+0 0  9996
2 54219   5.6660  63.4557 0002401 109.7684 100.5894  1.00542187 12073
EUTELSAT HOTBIRD 13G    
1 54225U 22146A   26191.31503042  .00000098  00000+0  00000+0 0  9995
2 54225   0.0540 217.3413 0002110 327.4302 229.8745  1.00270717  7699
ZHONGXING-19            
1 54230U 22148A   26191.24277032 -.00000071  00000+0  00000+0 0  9994
2 54230   0.0261 280.5307 0002950 216.6335  41.5930  1.00270525 13617
GALAXY 31 (G-31)        
1 54243U 22153A   26191.34177934  .00000000  00000+0  00000+0 0  9996
2 54243   0.0190  42.7700 0000932  80.0001 167.5317  1.00269816  7362
GALAXY 32 (G-32)        
1 54244U 22153B   26191.26376478 -.00000163  00000+0  00000+0 0  9993
2 54244   0.0095  29.5174 0001507  17.2587 245.3708  1.00271315 13379
EUTELSAT 10B            
1 54259U 22157A   26190.57067573  .00000081  00000+0  00000+0 0  9997
2 54259   0.0611  95.8495 0001939  19.2550  27.8360  1.00268864 13251
GALAXY 35 (G-35)        
1 54741U 22170A   26191.30992721  .00000000  00000+0  00000+0 0  9993
2 54741   0.0164  28.5392 0001861  87.0011 191.1661  1.00269617 13120
GALAXY 36 (G-36)        
1 54742U 22170B   26191.26411145 -.00000174  00000+0  00000+0 0  9998
2 54742   0.0260 117.6924 0002426 341.0636 195.5164  1.00271533 13006
METEOSAT-12 (MTG-I1)    
1 54743U 22170C   26191.33308481  .00000002  00000+0  00000+0 0  9994
2 54743   0.7198  18.8197 0003827  83.1984 305.9022  1.00266807 13215
SHIJIAN-23 (SJ-23)      
1 55131U 23002A   26190.73005426 -.00000331  00000+0  00000+0 0  9993
2 55131   3.7721  78.0297 0003406 271.2321 334.1379  1.00079269 12738
APSTAR-6E               
1 55239U 23005A   26191.30831167 -.00000306  00000+0  00000+0 0  9990
2 55239   0.0523 236.5935 0001865 338.9280 317.7280  1.00275375 18920
USA 342                 
1 55263U 23008A   26188.50607425  .00000000  00000+0  00000+0 0  9996
2 55263   0.0041 358.8692 0000194   5.7709 126.9344  1.00266819 12725
LDPE-3A                 
1 55264U 23008B   26191.24164366 -.00000259  00000+0  00000+0 0  9991
2 55264   2.4049  81.3798 0001525  77.4958  14.0566  0.99151319 12049
ELEKTRO-L 4             
1 55506U 23016A   26190.74040273 -.00000046  00000+0  00000+0 0  9997
2 55506   0.1044 130.5746 0001196  45.7352 183.6918  1.00272253 12563
AMAZONAS NEXUS          
1 55508U 23017A   26190.67543002 -.00000270  00000+0  00000+0 0  9999
2 55508   0.0345  40.6573 0004614  43.4687  25.6403  1.00269698  7276
ZHONGXING-26            
1 55686U 23023A   26191.37780304 -.00000343  00000+0  00000+0 0  9990
2 55686   0.0646  70.7392 0003335  29.2468  89.4047  1.00272476 12465
LUCH-5X (OLYMP-K 2)     
1 55841U 23031A   26190.69906028  .00000045  00000+0  00000+0 0  9997
2 55841   0.0321  92.7131 0000986 153.1595 355.3951  1.00272964 12168
GAOFEN-13 02            
1 55912U 23036A   26191.35530866 -.00000208  00000+0  00000+0 0  9990
2 55912   1.0259   3.9334 0003724 337.8623 222.5682  1.00275428 12325
SES-18                  
1 55970U 23038A   26191.31079814 -.00000090  00000+0  00000+0 0  9992
2 55970   0.0504 266.1441 0000647 303.9161  86.9708  1.00271430 12336
SES-19                  
1 55971U 23038B   26191.33540885  .00000098  00000+0  00000+0 0  9993
2 55971   0.0260 303.3044 0001648 177.0180 153.7867  1.00272233 12322
INTELSAT 40E (IS-40E)   
1 56174U 23052A   26191.26376478 -.00000163  00000+0  00000+0 0  9996
2 56174   0.0168  71.7954 0002213  71.2130 149.1372  1.00271727 12057
VIASAT-3 F1             
1 56370U 23060A   26191.19285008  .00000000  00000+0  00000+0 0  9992
2 56370   0.0174  15.5031 0001114 108.4229 144.6458  1.00264206 11660
ARCTURUS                
1 56371U 23060B   26191.09782557 -.00000297  00000+0  00000+0 0  9992
2 56371   2.8320  79.6570 0000713 135.6927 200.9616  1.00596681 11683
GS-1                    
1 56372U 23060C   26190.80040500 -.00000213  00000+0  00000+0 0  9994
2 56372   2.7823  79.5663 0003495 281.3864 304.3032  1.00268262  7768
BEIDOU-3 G4             
1 56564U 23066A   26191.30943833 -.00000270  00000+0  00000+0 0  9993
2 56564   0.4648 337.4315 0004855 187.7070  14.5230  1.00274299 11627
ARABSAT-7B (BADR-8)     
1 56757U 23075A   26191.05739304  .00000156  00000+0  00000+0 0  9997
2 56757   0.0719  28.6471 0003476   2.0078 303.9941  1.00271042 11349
NVS-01 (IRNSS-1J)       
1 56759U 23076A   26191.30735832 -.00000323  00000+0  00000+0 0  9997
2 56759   2.1142 243.3193 0003456   7.3744 277.7053  1.00267057 11340
NUSANTARA TIGA (SATRIA) 
1 57045U 23086A   26191.28447437 -.00000224  00000+0  00000+0 0  9995
2 57045   0.0339   8.7255 0002767 336.1803 191.7243  1.00272962  9994
